STARLINK-2083
1 47676U 21012BJ  26092.83335647  .00114336  00000+0  11225-2 0  9994
2 47676  53.0472 164.2545 0001790  35.4313  14.7328 15.65218442  5914
